IRIDIUM 36              
1 24967U 97056C   24137.85421925  .00001175  00000+0  39181-3 0  9996
2 24967  86.3964 339.4549 0002060  91.6313 268.5121 14.36792933395294
IRIDIUM 39              
1 25042U 97069D   24137.63459434  .00001698  00000+0  45191-3 0  9995
2 25042  86.3951  21.0547 0017845 182.9549 177.1552 14.47936797391557
IRIDIUM 38              
1 25043U 97069E   24137.73235988  .00001312  00000+0  43406-3 0  9993
2 25043  86.3991  39.8763 0001921  34.5097 325.6225 14.37249865388990
IRIDIUM 42              
1 25077U 97077A   24137.46914858  .00001317  00000+0  45113-3 0  9991
2 25077  86.3992  45.6686 0002149  68.7286 291.4139 14.35551928384263
IRIDIUM 44              
1 25078U 97077B   24137.44459145  .00001271  00000+0  40263-3 0  9993
2 25078  86.3991  28.6741 0000638 127.5242 232.6014 14.39383417386613
IRIDIUM 45              
1 25104U 97082A   24137.72591950  .00023141  00000+0  13094-2 0  9992
2 25104  86.3755 237.0036 0160046 354.6131   5.3371 15.02601159392136
IRIDIUM 24              
1 25105U 97082B   24137.57208456  .00001749  00000+0  53634-3 0  9997
2 25105  86.3917 248.2471 0009721 314.9643  45.0767 14.41161561386079
IRIDIUM 51              
1 25262U 98018A   24137.58452694  .00026675  00000+0  12652-2 0  9996
2 25262  86.3958 246.9807 0145263 299.2994  59.3792 15.10191255386865
